{
  "fetched_at": "2026-05-05T15:46:56.088744+00:00",
  "satellites": {
    "57166": {
      "name": "Meteor M2-3",
      "tle_line1": "1 57166U 23091A   26125.30868230  .00000006  00000+0  21534-4 0  9990",
      "tle_line2": "2 57166  98.6111 181.1571 0002876 304.5653  55.5255 14.24043139148412"
    },
    "59051": {
      "name": "Meteor M2-4",
      "tle_line1": "1 59051U 24039A   26125.27473309  .00000030  00000+0  33179-4 0  9998",
      "tle_line2": "2 59051  98.6992  85.1196 0006074 299.5368  60.5203 14.22425057113164"
    },
    "38771": {
      "name": "MetOp-B",
      "tle_line1": "1 38771U 12049A   26125.25074355  .00000121  00000+0  75239-4 0  9992",
      "tle_line2": "2 38771  98.6536 177.5994 0003563 106.8802 253.2767 14.21436077707167"
    },
    "43689": {
      "name": "MetOp-C",
      "tle_line1": "1 43689U 18087A   26125.27232369  .00000114  00000+0  72167-4 0  9996",
      "tle_line2": "2 43689  98.6669 185.6541 0000409  50.2463 309.8750 14.21500385388739"
    }
  }
}